ONEWEB-0628             
1 55169U 23004AF  25281.36397451 -.00000466  00000+0 -13300-2 0  9997
2 55169  87.8951  40.6726 0001908  77.6006 282.5336 13.12442122135005
ONEWEB-0629             
1 55170U 23004AG  25281.46103551  .00000056  00000+0  11032-3 0  9990
2 55170  87.9092  55.9399 0001439  88.0334 272.0962 13.17650747134432
ONEWEB-0631             
1 55171U 23004AH  25281.34291532  .00000003  00000+0 -24938-4 0  9998
2 55171  87.9228  25.4420 0002364 101.6845 258.4552 13.18686593136487
ONEWEB-0709             
1 55172U 23004AJ  25281.42500572  .00000235  00000+0  62587-3 0  9992
2 55172  87.8804  71.2323 0002284 112.4375 247.6995 13.11414539132879
ONEWEB-0710             
1 55173U 23004AK  25281.39944965  .00000085  00000+0  18472-3 0  9994
2 55173  87.9087  55.9468 0001800  91.3976 268.7362 13.17650753134429
ONEWEB-0711             
1 55174U 23004AL  25281.47247971  .00000214  00000+0  56884-3 0  9990
2 55174  87.8814  71.1921 0002081  73.3656 286.7700 13.11417379132847
ONEWEB-0713             
1 55175U 23004AM  25281.41483133  .00000496  00000+0  13642-2 0  9993
2 55175  87.8803  71.2091 0001812  85.6926 274.4409 13.11414652132821
ONEWEB-0715             
1 55176U 23004AN  25281.40975009  .00000511  00000+0  14063-2 0  9997
2 55176  87.8802  71.2099 0002374 101.5687 258.5707 13.11415849132862
